[{"OBJECT_NAME":"GENMAT-1","OBJECT_ID":"2023-174W","EPOCH":"2026-03-09T18:03:23.351040","MEAN_MOTION":15.32594666,"ECCENTRICITY":0.00074416,"INCLINATION":97.3728,"RA_OF_ASC_NODE":146.8236,"ARG_OF_PERICENTER":169.2515,"MEAN_ANOMALY":190.8888,"EPHEMERIS_TYPE":0,"CLASSIFICATION_TYPE":"U","NORAD_CAT_ID":58276,"ELEMENT_SET_NO":999,"REV_AT_EPOCH":12973,"BSTAR":0.00042157222,"MEAN_MOTION_DOT":0.0001321,"MEAN_MOTION_DDOT":0},{"OBJECT_NAME":"STARLINK-31280","OBJECT_ID":"2024-017T","EPOCH":"2026-03-09T16:30:41.747616","MEAN_MOTION":15.30174156,"ECCENTRICITY":0.00012834,"INCLINATION":53.1614,"RA_OF_ASC_NODE":204.4881,"ARG_OF_PERICENTER":77.8411,"MEAN_ANOMALY":282.2734,"EPHEMERIS_TYPE":0,"CLASSIFICATION_TYPE":"U","NORAD_CAT_ID":58843,"ELEMENT_SET_NO":999,"REV_AT_EPOCH":12005,"BSTAR":6.2805382e-5,"MEAN_MOTION_DOT":1.5e-5,"MEAN_MOTION_DDOT":0}]
